#aV2020  5  2  0  0  0.00000000     288 DD+AD WGS84 FIT  NGA
## 2103 518400.00000000   300.00000000 58971 0.0000000000000
+   32     1  2  3  4  5  6  7  8  9 10 11 12 13 14 15 16 17
+         18 19 20 21 22 23 24 25 26 27 28 29 30 31 32  0  0
+          0  0  0  0  0  0  0  0  0  0  0  0  0  0  0  0  0
+          0  0  0  0  0  0  0  0  0  0  0  0  0  0  0  0  0
+          0  0  0  0  0  0  0  0  0  0  0  0  0  0  0  0  0
++         2  2  2  2  2  2  2  2  2  2  2  2  2  2  2  2  2
++         2  2  2  2  2  2  2  2  2  2  2  2  2  2  2  0  0
++         0  0  0  0  0  0  0  0  0  0  0  0  0  0  0  0  0
++         0  0  0  0  0  0  0  0  0  0  0  0  0  0  0  0  0
++         0  0  0  0  0  0  0  0  0  0  0  0  0  0  0  0  0
%c cc cc ccc ccc cccc cccc cccc cccc ccccc ccccc ccccc ccccc
%c cc cc ccc ccc cccc cccc cccc cccc ccccc ccccc ccccc ccccc
%f  0.0000000  0.000000000  0.00000000000  0.000000000000000
%f  0.0000000  0.000000000  0.00000000000  0.000000000000000
%i    0    0    0    0      0      0      0      0         0
%i    0    0    0    0      0      0      0      0         0
/*      NGA, ST. LOUIS,MO.                                  
/*   EPHEMERIS COMPUTED FROM 2 DAYS OF DATA                 
/*   EPOCHA v5 SMOOTHER                                     
/*   G1762 IERS2010 SATAF SATAPC                            
*  2020  5  2 21 15  0.00000000
P  1  18510.961234   9230.320155  16634.505876   -372.110334                    
V  1   9837.064898  19007.091455 -20888.670053     -0.082133                    
P  2 -13342.011024 -22853.355652   3238.174485   -449.419673                    
V  2   4167.179937   1134.792487  31332.707239     -0.062959                    
P  3  17281.171049  -2881.462164  19872.583149   -163.455072                    
V  3 -11191.031872  22810.017217  13102.327567     -0.116462                    
P  4  26574.340681    353.642018    112.803769    -84.139226                    
V  4   -158.462227   2818.578834  31719.106484     -0.050594                    
P  5  -6522.828918 -17268.810160 -19159.123202    -11.940770                    
V  5  12303.298686 -20824.440028  14880.248659     -0.006939                    
P  6  -4919.458956 -23291.532439  11783.354275   -264.259093                    
V  6   9350.243161  11710.284730  27221.145881     -0.071803                    
P  7  12088.845054  -9370.298849 -21386.735222   -272.159901                    
V  7  14623.182660  23802.748783  -2612.037361     -0.086660                    
P  8  23157.774055   6895.934311 -11301.118730    -32.662339                    
V  8 -14185.521738   2513.319404 -27245.718805     -0.012714                    
P  9  23075.981063  -8218.727155 -10339.784093   -209.648049                    
V  9  13156.378504   2187.738427  27737.206095     -0.074652                    
P 10 -11069.517751  23884.837323   2469.381319   -328.874751                    
V 10  -3973.350834   1306.191076 -31797.195844     -0.117827                    
P 11  23334.530711  11810.819810   3072.010527   -288.406566                    
V 11   1418.723414   6302.878861 -30516.365721      0.107130                    
P 12 -16716.911306    666.395940  20350.968948    122.454631                    
V 12  13464.469580 -22694.767779  11823.864873     -0.043680                    
P 13 -16634.038078 -13017.685352 -16276.259048      6.852129                    
V 13  20454.562571    500.493528 -21371.978708      0.030083                    
P 14   1773.632745  15439.923049  21897.003942    -15.654014                    
V 14 -26935.544337  -1397.786859   3034.389066      0.025690                    
P 15 -24058.973182  -5104.524759 -10811.217739   -233.909533                    
V 15  12733.287358  -4589.720016 -26570.119329      0.026108                    
P 16   5674.056238  16166.415173 -20384.885431   -153.542419                    
V 16 -15060.604076  20579.525391  12695.346072     -0.044722                    
P 17   9061.726740 -13794.539394  21220.826882    258.428413                    
V 17  25886.267433   1522.751278 -10314.666261      0.060632                    
P 18 -12976.001147   7843.956452 -21819.809685    176.817771                    
V 18 -13814.962805 -23975.080229   -430.292535      0.126824                    
P 19    370.174580 -14616.295470  21875.390501   -164.074029                    
V 19  28351.083204   2236.089757    986.690911      0.051000                    
P 20 -15115.484066  19550.018756  -9519.026495    527.746106                    
V 20   1144.751973 -12526.038791 -27986.317590     -0.000468                    
P 21 -10795.653238  10647.160689 -21044.542531     -6.493185                    
V 21 -16602.157446 -23281.814551  -2876.058436      0.048763                    
P 22  14451.925887   6830.331097  21431.561356   -783.458102                    
V 22 -10842.757642  24537.011802   -377.676114      0.010007                    
P 23  24489.162738  -6903.887415  -7971.193781   -117.381305                    
V 23  10653.460596   2382.059280  28885.033483      0.030697                    
P 24 -19907.592738  -9823.653174  14647.404998    -12.504032                    
V 24  -8757.205700 -16877.567625 -22550.682963     -0.004767                    
P 25 -18234.940944  11609.403110  15008.080828      1.027425                    
V 25   7535.860033 -18205.746237  23135.286709      0.028386                    
P 26  -1899.367547  23371.609487 -12292.894123    198.944763                    
V 26  -9598.504540  12705.229611  25931.360708      0.072575                    
P 27  14336.602285  12391.329467 -18888.322434   -283.111273                    
V 27 -23501.637480   1500.898856 -16648.518697     -0.102949                    
P 28  11874.779211 -23451.453464   4882.277973    720.646412                    
V 28   4733.832826  -3352.839096 -31243.658411     -0.030918                    
P 29 -24972.290797   4190.777045  -8093.298488    -95.133139                    
V 29 -10088.595617  -2335.227810  30054.400988     -0.089780                    
P 30   3978.259701 -19316.115853 -17654.395823   -211.543232                    
V 30  12922.452698  18711.802814 -17733.658228     -0.083259                    
P 31   5226.565765  23676.709415  10247.175772    -39.851639                    
V 31  -9098.465973 -10039.355731  28176.733667     -0.024390                    
P 32  -7455.045272  14856.955919  20765.640624    272.396401                    
V 32 -26246.656624   -168.487886  -9481.618067      0.079535                    
EOF
